{
  "type": "FeatureCollection",
  "features": [
    {
      "type": "Feature",
      "properties": {
        "norad_id": 29770,
        "name": "FENGYUN 1C DEB",
        "group": "fengyun-1c-debris",
        "lat": -15.501538937456088,
        "lon": 73.90755244929781,
        "alt_km": 836.6516674303966,
        "timestamp": "2025-12-21T20:41:08.232840+00:00",
        "meta_object_name": "FENGYUN 1C DEB",
        "meta_object_id": "1999-025BL",
        "meta_epoch": "2025-12-21T03:59:29.157216",
        "meta_mean_motion": 14.20161559,
        "meta_eccentricity": 0.00635796,
        "meta_inclination": 98.846,
        "meta_ra_of_asc_node": 70.7367,
        "meta_arg_of_pericenter": 247.0612,
        "meta_mean_anomaly": 142.3685,
        "meta_ephemeris_type": 0,
        "meta_classification_type": "U",
        "meta_norad_cat_id": 29770,
        "meta_element_set_no": 999,
        "meta_rev_at_epoch": 97206,
        "meta_bstar": 0.00096616775,
        "meta_mean_motion_dot": 2.059e-05,
        "meta_mean_motion_ddot": 0,
        "tle_line1": "1 29770U 99025BL  25355.16630969  .00002059  00000+0  96617-3 0  9997",
        "tle_line2": "2 29770  98.8460  70.7367 0063579 247.0612 142.3685 14.20161559972061"
      },
      "geometry": {
        "type": "Point",
        "coordinates": [
          73.90755244929781,
          -15.501538937456088
        ]
      }
    },
    {
      "type": "Feature",
      "properties": {
        "norad_id": 29772,
        "name": "FENGYUN 1C DEB",
        "group": "fengyun-1c-debris",
        "lat": 67.02808182341502,
        "lon": -176.01221615003172,
        "alt_km": 972.0549018293259,
        "timestamp": "2025-12-21T20:41:08.232851+00:00",
        "meta_object_name": "FENGYUN 1C DEB",
        "meta_object_id": "1999-025BN",
        "meta_epoch": "2025-12-17T20:35:52.099296",
        "meta_mean_motion": 14.03229234,
        "meta_eccentricity": 0.01377936,
        "meta_inclination": 98.3866,
        "meta_ra_of_asc_node": 200.6611,
        "meta_arg_of_pericenter": 276.0163,
        "meta_mean_anomaly": 98.373,
        "meta_ephemeris_type": 0,
        "meta_classification_type": "U",
        "meta_norad_cat_id": 29772,
        "meta_element_set_no": 999,
        "meta_rev_at_epoch": 96327,
        "meta_bstar": 0.00087765197,
        "meta_mean_motion_dot": 1.448e-05,
        "meta_mean_motion_ddot": 0,
        "tle_line1": "1 29772U 99025BN  25351.85824189  .00001448  00000+0  87765-3 0  9995",
        "tle_line2": "2 29772  98.3866 200.6611 0137793 276.0163  98.3730 14.03229234963277"
      },
      "geometry": {
        "type": "Point",
        "coordinates": [
          -176.01221615003172,
          67.02808182341502
        ]
      }
    },
    {
      "type": "Feature",
      "properties": {
        "norad_id": 29773,
        "name": "FENGYUN 1C DEB",
        "group": "fengyun-1c-debris",
        "lat": -13.900164213854442,
        "lon": -32.522191726162134,
        "alt_km": 792.7871140530824,
        "timestamp": "2025-12-21T20:41:08.232861+00:00",
        "meta_object_name": "FENGYUN 1C DEB",
        "meta_object_id": "1999-025BP",
        "meta_epoch": "2025-12-21T09:58:17.827104",
        "meta_mean_motion": 14.27585323,
        "meta_eccentricity": 0.0046453,
        "meta_inclination": 98.9876,
        "meta_ra_of_asc_node": 149.2636,
        "meta_arg_of_pericenter": 265.2174,
        "meta_mean_anomaly": 156.2594,
        "meta_ephemeris_type": 0,
        "meta_classification_type": "U",
        "meta_norad_cat_id": 29773,
        "meta_element_set_no": 999,
        "meta_rev_at_epoch": 98321,
        "meta_bstar": 0.00030399235,
        "meta_mean_motion_dot": 7.09e-06,
        "meta_mean_motion_ddot": 0,
        "tle_line1": "1 29773U 99025BP  25355.41548411  .00000709  00000+0  30399-3 0  9993",
        "tle_line2": "2 29773  98.9876 149.2636 0046453 265.2174 156.2594 14.27585323983212"
      },
      "geometry": {
        "type": "Point",
        "coordinates": [
          -32.522191726162134,
          -13.900164213854442
        ]
      }
    },
    {
      "type": "Feature",
      "properties": {
        "norad_id": 29774,
        "name": "FENGYUN 1C DEB",
        "group": "fengyun-1c-debris",
        "lat": 1.6543695509239598,
        "lon": -63.80018419925518,
        "alt_km": 822.32864516678,
        "timestamp": "2025-12-21T20:41:08.232870+00:00",
        "meta_object_name": "FENGYUN 1C DEB",
        "meta_object_id": "1999-025BQ",
        "meta_epoch": "2025-12-21T14:45:45.209376",
        "meta_mean_motion": 14.2273906,
        "meta_eccentricity": 0.00513268,
        "meta_inclination": 99.0776,
        "meta_ra_of_asc_node": 296.2102,
        "meta_arg_of_pericenter": 98.2867,
        "meta_mean_anomaly": 80.7517,
        "meta_ephemeris_type": 0,
        "meta_classification_type": "U",
        "meta_norad_cat_id": 29774,
        "meta_element_set_no": 999,
        "meta_rev_at_epoch": 98201,
        "meta_bstar": 0.00014364414,
        "meta_mean_motion_dot": 2.8e-06,
        "meta_mean_motion_ddot": 0,
        "tle_line1": "1 29774U 99025BQ  25355.61510659  .00000280  00000+0  14364-3 0  9997",
        "tle_line2": "2 29774  99.0776 296.2102 0051326  98.2867  80.7517 14.22739060982010"
      },
      "geometry": {
        "type": "Point",
        "coordinates": [
          -63.80018419925518,
          1.6543695509239598
        ]
      }
    },
    {
      "type": "Feature",
      "properties": {
        "norad_id": 29776,
        "name": "FENGYUN 1C DEB",
        "group": "fengyun-1c-debris",
        "lat": 60.45858407420419,
        "lon": -141.84089831124376,
        "alt_km": 870.773396096436,
        "timestamp": "2025-12-21T20:41:08.232881+00:00",
        "meta_object_name": "FENGYUN 1C DEB",
        "meta_object_id": "1999-025BS",
        "meta_epoch": "2025-12-21T08:14:14.874144",
        "meta_mean_motion": 14.077804,
        "meta_eccentricity": 0.00229307,
        "meta_inclination": 98.7702,
        "meta_ra_of_asc_node": 21.8487,
        "meta_arg_of_pericenter": 245.5809,
        "meta_mean_anomaly": 125.7237,
        "meta_ephemeris_type": 0,
        "meta_classification_type": "U",
        "meta_norad_cat_id": 29776,
        "meta_element_set_no": 999,
        "meta_rev_at_epoch": 97201,
        "meta_bstar": 9.3903598e-05,
        "meta_mean_motion_dot": 1.16e-06,
        "meta_mean_motion_ddot": 0,
        "tle_line1": "1 29776U 99025BS  25355.34322771  .00000116  00000+0  93904-4 0  9991",
        "tle_line2": "2 29776  98.7702  21.8487 0022930 245.5809 125.7237 14.07780400972012"
      },
      "geometry": {
        "type": "Point",
        "coordinates": [
          -141.84089831124376,
          60.45858407420419
        ]
      }
    },
    {
      "type": "Feature",
      "properties": {
        "norad_id": 29777,
        "name": "FENGYUN 1C DEB",
        "group": "fengyun-1c-debris",
        "lat": 10.32270789243641,
        "lon": 51.02828899658966,
        "alt_km": 990.2858163558267,
        "timestamp": "2025-12-21T20:41:08.232891+00:00",
        "meta_object_name": "FENGYUN 1C DEB",
        "meta_object_id": "1999-025BT",
        "meta_epoch": "2025-12-21T03:31:13.283328",
        "meta_mean_motion": 13.92107603,
        "meta_eccentricity": 0.00930492,
        "meta_inclination": 99.2823,
        "meta_ra_of_asc_node": 52.0193,
        "meta_arg_of_pericenter": 186.9813,
        "meta_mean_anomaly": 201.2435,
        "meta_ephemeris_type": 0,
        "meta_classification_type": "U",
        "meta_norad_cat_id": 29777,
        "meta_element_set_no": 999,
        "meta_rev_at_epoch": 96158,
        "meta_bstar": 8.1509029e-05,
        "meta_mean_motion_dot": 6.3e-07,
        "meta_mean_motion_ddot": 0,
        "tle_line1": "1 29777U 99025BT  25355.14668152  .00000063  00000+0  81509-4 0  9995",
        "tle_line2": "2 29777  99.2823  52.0193 0093049 186.9813 201.2435 13.92107603961586"
      },
      "geometry": {
        "type": "Point",
        "coordinates": [
          51.02828899658966,
          10.32270789243641
        ]
      }
    },
    {
      "type": "Feature",
      "properties": {
        "norad_id": 29779,
        "name": "FENGYUN 1C DEB",
        "group": "fengyun-1c-debris",
        "lat": -49.02243410101259,
        "lon": 16.950560214821607,
        "alt_km": 900.1214346208271,
        "timestamp": "2025-12-21T20:41:08.232900+00:00",
        "meta_object_name": "FENGYUN 1C DEB",
        "meta_object_id": "1999-025BV",
        "meta_epoch": "2025-12-21T12:25:44.039712",
        "meta_mean_motion": 14.13450077,
        "meta_eccentricity": 0.0063888,
        "meta_inclination": 98.6768,
        "meta_ra_of_asc_node": 6.4914,
        "meta_arg_of_pericenter": 139.3372,
        "meta_mean_anomaly": 221.2597,
        "meta_ephemeris_type": 0,
        "meta_classification_type": "U",
        "meta_norad_cat_id": 29779,
        "meta_element_set_no": 999,
        "meta_rev_at_epoch": 97536,
        "meta_bstar": 0.00018826885,
        "meta_mean_motion_dot": 3.19e-06,
        "meta_mean_motion_ddot": 0,
        "tle_line1": "1 29779U 99025BV  25355.51787083  .00000319  00000+0  18827-3 0  9999",
        "tle_line2": "2 29779  98.6768   6.4914 0063888 139.3372 221.2597 14.13450077975365"
      },
      "geometry": {
        "type": "Point",
        "coordinates": [
          16.950560214821607,
          -49.02243410101259
        ]
      }
    }
  ]
}